{
  "norad_id": 68323,
  "name": "STARLINK-36983",
  "history": [
    {
      "epoch": "2026-03-31T16:00:01.999584Z",
      "apogee_km": 328.54056106207736,
      "perigee_km": 327.37638288814105,
      "latitude_deg": -25.967737619018056,
      "longitude_deg": 24.967412647800515,
      "height_km": 336.05715632546963,
      "semi_major_axis_km": 6706.095471975109,
      "eccentricity": 8.68e-05,
      "inclination_deg": 53.1605,
      "raan_deg": 252.7431,
      "arg_perigee_deg": 69.1247,
      "mean_anomaly_deg": 143.7659,
      "mean_motion_rev_day": 15.80877302
    }
  ]
}